ONEWEB-0549             
1 56051U 23043F   24270.20361496  .00000087  00000+0  18036-3 0  9990
2 56051  87.9370   9.2296 0002414  99.7945 260.3461 13.21828952 76045
ONEWEB-0550             
1 56052U 23043G   24270.56947940 -.00000004  00000+0 -42080-4 0  9992
2 56052  87.9366   9.1610 0001804 106.6701 253.4631 13.21828177 76096
ONEWEB-0551             
1 56053U 23043H   24269.55268009  .00000170  00000+0  41726-3 0  9999
2 56053  87.9112  24.5346 0002022 104.8781 255.2573 13.15549723 73614
ONEWEB-0552             
1 56054U 23043J   24269.57911711  .00000022  00000+0  20699-4 0  9990
2 56054  87.9365   9.3668 0001942 111.1648 248.9693 13.21828642 75965
ONEWEB-0553             
1 56055U 23043K   24270.15510063  .00000200  00000+0  49022-3 0  9990
2 56055  87.9173 354.0602 0001885  91.4122 268.7225 13.16595672 77112
ONEWEB-0554             
1 56056U 23043L   24269.53446322  .00000149  00000+0  35510-3 0  9996
2 56056  87.9173 354.2068 0001542 117.7586 242.3701 13.16593426 76107
ONEWEB-0555             
1 56057U 23043M   24269.26846325 -.00000004  00000+0 -44498-4 0  9992
2 56057  87.9169 354.2290 0001605  81.9253 278.2060 13.16595829 76074
ONEWEB-0557             
1 56058U 23043N   24270.19468460  .00000005  00000+0 -20061-4 0  9997
2 56058  87.9168 354.0704 0001058  74.9737 285.1511 13.16594136 77106
